{
  "version": 0.6,
  "generator": "Overpass API 0.7.56.9 76e5016d",
  "osm3s": {
    "timestamp_osm_base": "2021-05-13T10:30:43Z",
    "timestamp_areas_base": "2021-05-13T09:39:42Z",
    "copyright": "The data included in this document is from www.openstreetmap.org. The data is made available under ODbL."
  },
  "elements": [
    {
      "type": "node",
      "id": 7043041314,
      "lat": 19.1684368,
      "lon": 77.306553,
      "tags": {
        "addr:district": "Nanded",
        "addr:full": "Vip Road, Iti Corner",
        "addr:postcode": "431601",
        "addr:state": "Maharashtra",
        "amenity": "hospital",
        "name": "Global Super Speciality Hospital",
        "source": "OpenGovernmentData"
      }
    },
    {
      "type": "node",
      "id": 7043397901,
      "lat": 19.1618072,
      "lon": 77.3176132,
      "tags": {
        "addr:district": "Nanded",
        "addr:full": "Near Hingoli Gate (Under Bridge)",
        "addr:postcode": "431602",
        "addr:state": "Maharashtra",
        "amenity": "hospital",
        "name": "Godavari Hospital ( Giccm )",
        "source": "OpenGovernmentData"
      }
    },
    {
      "type": "node",
      "id": 7048918872,
      "lat": 19.157964,
      "lon": 77.3081519,
      "tags": {
        "addr:district": "Nanded",
        "addr:full": "Near : Sbi, Opp: Kala Mandir Ghamodia, Doctor's Lane",
        "addr:postcode": "431601",
        "addr:state": "Maharashtra",
        "amenity": "hospital",
        "name": "Bokare Hospital",
        "source": "OpenGovernmentData"
      }
    },
    {
      "type": "node",
      "id": 7049673893,
      "lat": 19.1589189,
      "lon": 77.3086345,
      "tags": {
        "addr:district": "Nanded",
        "addr:full": "Doctor Lane, Chamodiya Area,Opposite Sbi Bank,Vazirabad",
        "addr:postcode": "431601",
        "addr:state": "Maharashtra",
        "amenity": "hospital",
        "name": "Toshniwal Chest Hospital Maternity and Nursing Home",
        "source": "OpenGovernmentData"
      }
    },
    {
      "type": "node",
      "id": 7050847665,
      "lat": 19.1518923,
      "lon": 77.3131105,
      "tags": {
        "addr:district": "Nanded",
        "addr:full": "Lavekar Hospital Subhash Road Vazirabad",
        "addr:postcode": "431601",
        "addr:state": "Maharashtra",
        "amenity": "hospital",
        "name": "Lavekar Hospital",
        "source": "OpenGovernmentData"
      }
    },
    {
      "type": "node",
      "id": 7054148418,
      "lat": 19.1617154,
      "lon": 77.3045093,
      "tags": {
        "addr:district": "Nanded",
        "addr:full": "Shivajinagar",
        "addr:postcode": "431602",
        "addr:state": "Maharashtra",
        "amenity": "hospital",
        "name": "Radha Govind Hospital",
        "source": "OpenGovernmentData"
      }
    },
    {
      "type": "node",
      "id": 7054243698,
      "lat": 19.1612093,
      "lon": 77.3047158,
      "tags": {
        "addr:district": "Nanded",
        "addr:full": "Shivaji Nagar",
        "addr:postcode": "431602",
        "addr:state": "Maharashtra",
        "amenity": "hospital",
        "name": "Ashwini Hospital and RamaKant Heart Center Pvt.Ltd.",
        "source": "OpenGovernmentData"
      }
    },
    {
      "type": "node",
      "id": 7054809809,
      "lat": 19.1588093,
      "lon": 77.3075844,
      "tags": {
        "addr:district": "Nanded",
        "addr:full": "Near Bus Stand,Ghamodiya,Doctors Lane",
        "addr:postcode": "431601",
        "addr:state": "Maharashtra",
        "amenity": "hospital",
        "name": "Motewar Netrlaya",
        "source": "OpenGovernmentData"
      }
    },
    {
      "type": "node",
      "id": 7062539957,
      "lat": 19.1516585,
      "lon": 77.3079519,
      "tags": {
        "addr:district": "Nanded",
        "addr:full": "Borban Goverdhanghat Road, Nanded",
        "addr:postcode": "431601",
        "addr:state": "Maharashtra",
        "amenity": "hospital",
        "name": "Mahale Hospital",
        "source": "OpenGovernmentData"
      }
    },
    {
      "type": "node",
      "id": 7065820629,
      "lat": 19.1561901,
      "lon": 77.3070078,
      "tags": {
        "addr:district": "Nanded",
        "addr:full": "No. 2-9-70, Somesh Colony,Behind Kala Mandir",
        "addr:postcode": "431601",
        "addr:state": "Maharashtra",
        "amenity": "hospital",
        "name": "Tungenwar Orthopaedic and Maternity Hospital",
        "source": "OpenGovernmentData"
      }
    },
    {
      "type": "node",
      "id": 7066505806,
      "lat": 19.1561331,
      "lon": 77.3100252,
      "tags": {
        "addr:district": "Nanded",
        "addr:full": "Near Shivaj Putla",
        "addr:postcode": "431601",
        "addr:state": "Maharashtra",
        "amenity": "hospital",
        "name": "Wadekar Hospital, Nanded",
        "source": "OpenGovernmentData"
      }
    },
    {
      "type": "node",
      "id": 7067261129,
      "lat": 19.1528348,
      "lon": 77.3101547,
      "tags": {
        "addr:district": "Nanded",
        "addr:full": "Borban Factory Area,Govardhan Ghat Road",
        "addr:postcode": "431601",
        "addr:state": "Maharashtra",
        "amenity": "hospital",
        "name": "Marathawada Bal Rugnalya",
        "source": "OpenGovernmentData"
      }
    },
    {
      "type": "node",
      "id": 7070543975,
      "lat": 19.1589429,
      "lon": 77.306995,
      "tags": {
        "addr:district": "Nanded",
        "addr:full": "Doctors Lane",
        "addr:postcode": "431601",
        "addr:state": "Maharashtra",
        "amenity": "hospital",
        "name": "Dr Komawar Hospital",
        "source": "OpenGovernmentData"
      }
    },
    {
      "type": "node",
      "id": 7073651561,
      "lat": 19.1570554,
      "lon": 77.3081812,
      "tags": {
        "addr:district": "Nanded",
        "addr:full": "1,2 & 3, Doctors Lane",
        "addr:postcode": "431601",
        "addr:state": "Maharashtra",
        "amenity": "hospital",
        "name": "Kadam Hospital",
        "source": "OpenGovernmentData"
      }
    },
    {
      "type": "node",
      "id": 7075571871,
      "lat": 19.1620979,
      "lon": 77.302049,
      "tags": {
        "addr:district": "Nanded",
        "addr:full": "Near Peoples High School, Gokul Nagar",
        "addr:postcode": "431602",
        "addr:state": "Maharashtra",
        "amenity": "hospital",
        "name": "Gargi Hospital",
        "source": "OpenGovernmentData"
      }
    },
    {
      "type": "node",
      "id": 7076379886,
      "lat": 19.1582411,
      "lon": 77.308951,
      "tags": {
        "addr:district": "Nanded",
        "addr:full": "Doctor's Plaza, Doctor's Lane ,Near Bus Stand & Railway Station",
        "addr:postcode": "431731",
        "addr:state": "Maharashtra",
        "amenity": "hospital",
        "name": "Lotus Hospital and Critical Care Centre",
        "source": "OpenGovernmentData"
      }
    },
    {
      "type": "node",
      "id": 7076557569,
      "lat": 19.1577014,
      "lon": 77.3088706,
      "tags": {
        "addr:district": "Nanded",
        "addr:full": "Aarif Sir's Account Classes, Dr Lane Rd Number 1, Khadakpura",
        "addr:postcode": "431601",
        "addr:state": "Maharashtra",
        "amenity": "hospital",
        "name": "Jayashree Ent and Maternity Nursing Home",
        "source": "OpenGovernmentData"
      }
    },
    {
      "type": "node",
      "id": 7079411336,
      "lat": 19.1551133,
      "lon": 77.3066255,
      "tags": {
        "addr:district": "Nanded",
        "addr:full": "Somesh Colony, Behind Kalamandir",
        "addr:postcode": "431601",
        "addr:state": "Maharashtra",
        "amenity": "hospital",
        "name": "Vishwa Institute Urology and Kidney Centre",
        "source": "OpenGovernmentData",
        "website": "https://www.vishwaurology.com/"
      }
    },
    {
      "type": "node",
      "id": 7080413691,
      "lat": 19.1624666,
      "lon": 77.3191146,
      "tags": {
        "addr:district": "Nanded",
        "addr:full": "Near Lokmanya Mangal Karyalay,Hingoli Gate",
        "addr:postcode": "431602",
        "addr:state": "Maharashtra",
        "amenity": "hospital",
        "name": "Samarth Orthopedic and Accident Hospital",
        "source": "OpenGovernmentData"
      }
    },
    {
      "type": "node",
      "id": 7081227359,
      "lat": 19.1502029,
      "lon": 77.3092648,
      "tags": {
        "addr:district": "Nanded",
        "addr:full": "Goverdhan Ghat Road",
        "addr:postcode": "431601",
        "addr:state": "Maharashtra",
        "amenity": "hospital",
        "name": "Kardile Hospital",
        "source": "OpenGovernmentData"
      }
    },
    {
      "type": "node",
      "id": 7085422891,
      "lat": 19.1649058,
      "lon": 77.3146601,
      "tags": {
        "addr:district": "Nanded",
        "addr:full": "V.I.P. Road, Visen Nagar",
        "addr:postcode": "431602",
        "addr:state": "Maharashtra",
        "amenity": "hospital",
        "name": "Shri Venkatadri Hospital",
        "source": "OpenGovernmentData"
      }
    },
    {
      "type": "node",
      "id": 7210907282,
      "lat": 19.1616063,
      "lon": 77.316343,
      "tags": {
        "addr:district": "Nanded",
        "addr:full": "Hingoli Gate Flyover, Samrat Nagar, Hyder Bagh,Nanded",
        "addr:postcode": "431601",
        "addr:state": "Maharashtra",
        "amenity": "hospital",
        "name": "Max Hospital",
        "source": "OpenGovernmentData"
      }
    },
    {
      "type": "node",
      "id": 7210920487,
      "lat": 19.1617475,
      "lon": 77.316378,
      "tags": {
        "addr:district": "Nanded",
        "addr:full": "Hingoli Gate Subway Road, Ashraf Nagar, Hyder Bagh, Nanded",
        "addr:postcode": "431601",
        "addr:state": "Maharashtra",
        "amenity": "hospital",
        "name": "Cure Max Multi_Speciality Hospital And Critical Care Centre",
        "source": "OpenGovernmentData"
      }
    },
    {
      "type": "node",
      "id": 7210920492,
      "lat": 19.1617948,
      "lon": 77.3170365,
      "tags": {
        "addr:district": "Nanded",
        "addr:full": "Hingoli Gate Flyover,nanded",
        "addr:postcode": "431605",
        "addr:state": "Maharashtra",
        "amenity": "hospital",
        "name": "Sharma Hospital",
        "source": "OpenGovernmentData"
      }
    },
    {
      "type": "node",
      "id": 7210920497,
      "lat": 19.161792,
      "lon": 77.3168407,
      "tags": {
        "addr:district": "Nanded",
        "addr:full": "NearMseb Office, Hingoli Gate, Ashraf Nagar,nanded",
        "addr:postcode": "431605",
        "addr:state": "Maharashtra",
        "amenity": "hospital",
        "name": "Shriniwas Orthopaedic Nursing Home",
        "source": "OpenGovernmentData"
      }
    },
    {
      "type": "node",
      "id": 7210920502,
      "lat": 19.1624466,
      "lon": 77.3168754,
      "tags": {
        "addr:district": "Nanded",
        "addr:full": "Opposite Mseb Office New Mondha",
        "addr:postcode": "431601",
        "addr:state": "Maharashtra",
        "amenity": "hospital",
        "name": "Samarth Hospital",
        "source": "OpenGovernmentData"
      }
    },
    {
      "type": "node",
      "id": 7225067131,
      "lat": 19.1084415,
      "lon": 77.2879096,
      "tags": {
        "addr:district": "Nanded",
        "addr:postcode": "431606",
        "addr:state": "Maharashtra",
        "amenity": "hospital",
        "name": "Vishnupuri Gramin Hospital",
        "source": "OpenGovernmentData"
      }
    },
    {
      "type": "node",
      "id": 7225067193,
      "lat": 19.175827,
      "lon": 77.309114,
      "tags": {
        "addr:district": "Nanded",
        "addr:full": "Opp. Pharmacy College, Nanded",
        "addr:postcode": "431602",
        "addr:state": "Maharashtra",
        "amenity": "hospital",
        "description": "Women Hospital",
        "name": "Women Hospital",
        "source": "OpenGovernmentData"
      }
    },
    {
      "type": "node",
      "id": 7225067228,
      "lat": 19.180153,
      "lon": 77.302463,
      "tags": {
        "addr:district": "Nanded",
        "addr:full": "Nanded-Malegaon Road, Near Employment Office, Nanded",
        "addr:postcode": "431602",
        "addr:state": "Maharashtra",
        "amenity": "hospital",
        "name": "NDMC Jangamwadi Government Hospital",
        "source": "OpenGovernmentData"
      }
    },
    {
      "type": "node",
      "id": 7225067283,
      "lat": 19.143427,
      "lon": 77.324738,
      "tags": {
        "addr:district": "Nanded",
        "addr:full": "Arab Galli Area, Darbaar Masjid Road, Near Nanded Fort, Nanded",
        "addr:postcode": "431604",
        "addr:state": "Maharashtra",
        "amenity": "hospital",
        "name": "NDMC Arabgalli Municipal Hospital",
        "source": "OpenGovernmentData"
      }
    },
    {
      "type": "node",
      "id": 7225067286,
      "lat": 19.156482,
      "lon": 77.313095,
      "tags": {
        "addr:district": "Nanded",
        "addr:full": "Vazirabad, Nanded",
        "addr:postcode": "431601",
        "addr:state": "Maharashtra",
        "amenity": "hospital",
        "description": "Medical Colleges Hospital",
        "name": "Dr Shankarrao Chavan Government Medical College and Hospital, Vazirabad",
        "source": "OpenGovernmentData"
      }
    },
    {
      "type": "node",
      "id": 7605276552,
      "lat": 19.1100465,
      "lon": 77.3220992,
      "tags": {
        "addr:district": "Nanded",
        "addr:full": "Nanded",
        "addr:postcode": "431603",
        "addr:state": "Maharashtra",
        "amenity": "hospital",
        "name": "Government Hospital, Nanded",
        "source": "Local Knowledge"
      }
    },
    {
      "type": "node",
      "id": 7607937766,
      "lat": 19.1423055,
      "lon": 77.3095579,
      "tags": {
        "addr:district": "Nanded",
        "addr:full": "Pahar Ganj",
        "addr:postcode": "431603",
        "addr:state": "Maharashtra",
        "amenity": "hospital",
        "name": "Government Hospital, Kautha",
        "source": "Local Knowledge"
      }
    },
    {
      "type": "node",
      "id": 7634424672,
      "lat": 19.1512345,
      "lon": 77.3085905,
      "tags": {
        "addr:district": "Nanded",
        "addr:full": "Doctor Lane Borban, Vazirabad, Nanded-Waghala",
        "addr:postcode": "431601",
        "addr:state": "Maharastra",
        "amenity": "hospital",
        "name": "Marathwada Children Hospital",
        "source": "Local Knowledge"
      }
    },
    {
      "type": "node",
      "id": 7634424673,
      "lat": 19.156572,
      "lon": 77.307015,
      "tags": {
        "addr:district": "Nanded",
        "addr:full": "Somesh Colony, Behind Kalamandir, Nanded",
        "addr:postcode": "431601",
        "addr:state": "Maharastra",
        "amenity": "hospital",
        "name": "Motewar Hospital",
        "source": "Local Knowledge"
      }
    },
    {
      "type": "node",
      "id": 7634424674,
      "lat": 19.15376,
      "lon": 77.314747,
      "tags": {
        "addr:district": "Nanded",
        "addr:full": "Chikhalwadi, Hyder Bagh, Dashmesh Nagar, Dulleshah Raheman Nagar, Nanded",
        "addr:postcode": "431601",
        "addr:state": "Maharastra",
        "amenity": "hospital",
        "name": "Sai Children's Hospital",
        "source": "Local Knowledge"
      }
    },
    {
      "type": "node",
      "id": 7634424675,
      "lat": 19.1480054,
      "lon": 77.3152162,
      "tags": {
        "addr:district": "Nanded",
        "addr:full": "Ganeem Pura, Khadakpura, Nanded",
        "addr:postcode": "431604",
        "addr:state": "Maharastra",
        "amenity": "hospital",
        "name": "Nidan Singh Memorial Hospital",
        "source": "Local Knowledge"
      }
    },
    {
      "type": "node",
      "id": 7634424676,
      "lat": 19.162154,
      "lon": 77.316643,
      "tags": {
        "addr:district": "Nanded",
        "addr:full": "Ashraf Nagar, Hingoli Gate, Opp. Samarth Hospital, Nanded",
        "addr:postcode": "431601",
        "addr:state": "Maharastra",
        "amenity": "hospital",
        "name": "Sahyadri Children's Hospital",
        "source": "Local Knowledge"
      }
    },
    {
      "type": "node",
      "id": 7634424677,
      "lat": 19.1516681,
      "lon": 77.3160923,
      "tags": {
        "addr:district": "Nanded",
        "addr:full": "Samrat Nagar, Hyder Bagh, Dashmesh Nagar, Harsh Nagar, Nanded",
        "addr:postcode": "431601",
        "addr:state": "Maharastra",
        "amenity": "hospital",
        "name": "Jija Mata Hospital",
        "source": "Local Knowledge"
      }
    },
    {
      "type": "node",
      "id": 7634424679,
      "lat": 19.157936,
      "lon": 77.306463,
      "tags": {
        "addr:district": "Nanded",
        "addr:full": "Mill Gate Road, Beside Bus Stand, Kalamandir, Nanded",
        "addr:postcode": "431602",
        "addr:state": "Maharastra",
        "amenity": "hospital",
        "name": "Patil Hospital",
        "source": "Local Knowledge"
      }
    },
    {
      "type": "node",
      "id": 7634424680,
      "lat": 19.1539523,
      "lon": 77.3083028,
      "tags": {
        "addr:district": "Nanded",
        "addr:full": "Behind S. P. Office, Police Head Quaters Road, Vazirabad, Nanded",
        "addr:postcode": "431601",
        "addr:state": "Maharastra",
        "amenity": "hospital",
        "name": "Arham Hospital Maternity & Surgical Home",
        "source": "Local Knowledge"
      }
    },
    {
      "type": "node",
      "id": 7634424681,
      "lat": 19.1103523,
      "lon": 77.323613,
      "tags": {
        "addr:district": "Nanded",
        "addr:full": "CIDCO Colony, Nanded",
        "addr:postcode": "431603",
        "addr:state": "Maharastra",
        "amenity": "hospital",
        "name": "Dr. Ashok Bhise Hospital",
        "source": "Local Knowledge"
      }
    },
    {
      "type": "node",
      "id": 7634424684,
      "lat": 19.155925,
      "lon": 77.305928,
      "tags": {
        "addr:district": "Nanded",
        "addr:full": "Somesh Colony, Khadakpura, Nanded",
        "addr:postcode": "431601",
        "addr:state": "Maharastra",
        "amenity": "hospital",
        "name": "Rayat General Hospital",
        "source": "Local Knowledge"
      }
    },
    {
      "type": "node",
      "id": 7634424686,
      "lat": 19.151792,
      "lon": 77.31584,
      "tags": {
        "addr:district": "Nanded",
        "addr:full": "Gurudwara Road, Samrat Nagar, Hyder Bagh, Dashmesh Nagar, Harsh Nagar, Nanded",
        "addr:postcode": "431601",
        "addr:state": "Maharastra",
        "amenity": "hospital",
        "name": "Dr. A. P. Deshmukh Kahalekar",
        "source": "Local Knowledge"
      }
    },
    {
      "type": "node",
      "id": 7634424688,
      "lat": 19.1526995,
      "lon": 77.3097008,
      "tags": {
        "addr:district": "Nanded",
        "addr:full": "Vazirabad, Nanded",
        "addr:postcode": "431601",
        "addr:state": "Maharastra",
        "amenity": "hospital",
        "name": "Dr. M.A.Gaffar Hospital",
        "source": "Local Knowledge"
      }
    },
    {
      "type": "node",
      "id": 7634424689,
      "lat": 19.151406,
      "lon": 77.315139,
      "tags": {
        "addr:district": "Nanded",
        "addr:full": "Chikhalwadi to Gurudwara Road, Samrat Nagar, Hyder Bagh, Harsh Nagar, Nanded",
        "addr:postcode": "431601",
        "addr:state": "Maharastra",
        "amenity": "hospital",
        "name": "Ardhapurkar Hospital",
        "source": "Local Knowledge"
      }
    },
    {
      "type": "node",
      "id": 7634424696,
      "lat": 19.1528109,
      "lon": 77.329597,
      "tags": {
        "addr:district": "Nanded",
        "addr:full": "Beside Iqra School, Degloor Naka Nanded",
        "addr:postcode": "431604",
        "addr:state": "Maharastra",
        "amenity": "hospital",
        "name": "Raziya Memorial Hospital",
        "source": "Local Knowledge"
      }
    },
    {
      "type": "node",
      "id": 7634424697,
      "lat": 19.1575492,
      "lon": 77.3049299,
      "tags": {
        "addr:district": "Nanded",
        "addr:full": "NTC Mill Road, Khadakpura, Nanded",
        "addr:postcode": "431601",
        "addr:state": "Maharastra",
        "amenity": "hospital",
        "name": "Mathurai Hospital",
        "source": "Local Knowledge"
      }
    },
    {
      "type": "node",
      "id": 7634424698,
      "lat": 19.1494332,
      "lon": 77.3236343,
      "tags": {
        "addr:district": "Nanded",
        "addr:full": "Mohammed Ali Road, Hyder Bagh, Dashmesh Nagar, Saibaba Chowk, Nanded",
        "addr:postcode": "431604",
        "addr:state": "Maharastra",
        "amenity": "hospital",
        "name": "Goda Nursing Home",
        "source": "Local Knowledge"
      }
    },
    {
      "type": "node",
      "id": 7634424699,
      "lat": 19.1320644,
      "lon": 77.3204612,
      "tags": {
        "addr:district": "Nanded",
        "addr:full": "Besides Hanuman Mandir, Opp Water Tank, Wasarni, Kautha, Nanded",
        "addr:postcode": "431603",
        "addr:state": "Maharastra",
        "amenity": "hospital",
        "name": "Krushnai Hospital",
        "source": "Local Knowledge"
      }
    },
    {
      "type": "node",
      "id": 7634424700,
      "lat": 19.1622231,
      "lon": 77.3198726,
      "tags": {
        "addr:district": "Nanded",
        "addr:full": "Aanabhau, Sathi Chowk, Samrat Nagar, Nanded",
        "addr:postcode": "431601",
        "addr:state": "Maharastra",
        "amenity": "hospital",
        "name": "Ankur Super-Speciality Women Hospital",
        "source": "Local Knowledge"
      }
    },
    {
      "type": "node",
      "id": 7634424701,
      "lat": 19.154975,
      "lon": 77.306508,
      "tags": {
        "addr:district": "Nanded",
        "addr:full": "Behind Kala Mandir, Near Nehru English School, Somesh colony, Khadakpura, Nanded",
        "addr:postcode": "431601",
        "addr:state": "Maharastra",
        "amenity": "hospital",
        "name": "Sai Netralaya Hospital",
        "source": "Local Knowledge"
      }
    },
    {
      "type": "node",
      "id": 7634424702,
      "lat": 19.1444092,
      "lon": 77.325184,
      "tags": {
        "addr:district": "Nanded",
        "addr:full": "Arab Galli Area, Hyder Bagh, Dashmesh Nagar, Harsh Nagar, Nanded",
        "addr:postcode": "431604",
        "addr:state": "Maharastra",
        "amenity": "hospital",
        "name": "Ansari Hospital",
        "source": "Local Knowledge"
      }
    },
    {
      "type": "node",
      "id": 7634424704,
      "lat": 19.1488467,
      "lon": 77.3242074,
      "tags": {
        "addr:district": "Nanded",
        "addr:full": "Itwara Road, Near kela Market, Near Solanki Brothers, Nanded",
        "addr:postcode": "431604",
        "addr:state": "Maharastra",
        "amenity": "hospital",
        "name": "Deshmukh Hospital",
        "source": "Local Knowledge"
      }
    },
    {
      "type": "node",
      "id": 7634424707,
      "lat": 19.1591059,
      "lon": 77.3088177,
      "tags": {
        "addr:district": "Nanded",
        "addr:full": "Doctor Lane Road, Number 2, Railway Station Road, Opposite SBI ATM, Khadakpura, Nanded-Waghala,",
        "addr:postcode": "431601",
        "addr:state": "Maharastra",
        "amenity": "hospital",
        "name": "Rehman Hospital",
        "source": "Local Knowledge"
      }
    },
    {
      "type": "node",
      "id": 7634424708,
      "lat": 19.1528035,
      "lon": 77.3147142,
      "tags": {
        "addr:district": "Nanded",
        "addr:full": "Chikhalwadi Corner, Samrat Nagar, Hyder Bagh, Dashmesh Nagar, Harsh Nagar, Nanded",
        "addr:postcode": "431601",
        "addr:state": "Maharastra",
        "amenity": "hospital",
        "name": "Shusurusha Hospital ICSI & Test Tube Centre",
        "source": "Local Knowledge"
      }
    },
    {
      "type": "node",
      "id": 7634424709,
      "lat": 19.1526299,
      "lon": 77.3104517,
      "tags": {
        "addr:district": "Nanded",
        "addr:full": "Vazirabad, Nanded-Waghala",
        "addr:postcode": "431601",
        "addr:state": "Maharastra",
        "amenity": "hospital",
        "name": "Bajaj Hospital",
        "source": "Local Knowledge"
      }
    },
    {
      "type": "node",
      "id": 7634424710,
      "lat": 19.157743,
      "lon": 77.308388,
      "tags": {
        "addr:district": "Nanded",
        "addr:full": "Doctor Lane, Khadakpura, Nanded",
        "addr:postcode": "431601",
        "addr:state": "Maharastra",
        "amenity": "hospital",
        "name": "Patil Eye Hospital and Maternity Home",
        "source": "Local Knowledge"
      }
    },
    {
      "type": "node",
      "id": 7634424712,
      "lat": 19.1584868,
      "lon": 77.3086669,
      "tags": {
        "addr:district": "Nanded",
        "addr:full": "Ghamodiya, Doctor Lane, Nanded-Waghala",
        "addr:postcode": "431601",
        "addr:state": "Maharastra",
        "amenity": "hospital",
        "name": "Ashtvinayak Hospital and ICU",
        "source": "Local Knowledge"
      }
    },
    {
      "type": "node",
      "id": 7634424713,
      "lat": 19.1578167,
      "lon": 77.3107968,
      "tags": {
        "addr:district": "Nanded",
        "addr:full": "Gavalipura, Railway Station Road, Nanded",
        "addr:postcode": "431601",
        "addr:state": "Maharastra",
        "amenity": "hospital",
        "name": "Deglurkar Hospital & Suyog Maternity Home",
        "source": "Local Knowledge"
      }
    },
    {
      "type": "node",
      "id": 7634424714,
      "lat": 19.1348301,
      "lon": 77.3052956,
      "tags": {
        "addr:district": "Nanded",
        "addr:full": "Gowardhan Ghat Bridge Road, MHADA Colony, Navakotha, Nanded",
        "addr:postcode": "431603",
        "addr:state": "Maharastra",
        "amenity": "hospital",
        "name": "YashoSai Hospital",
        "source": "Local Knowledge"
      }
    },
    {
      "type": "node",
      "id": 7634424716,
      "lat": 19.163688,
      "lon": 77.317455,
      "tags": {
        "addr:district": "Nanded",
        "addr:full": "Hingoli Gate, Opp. M.S.E.B Office, Nanded",
        "addr:postcode": "431601",
        "addr:state": "Maharastra",
        "amenity": "hospital",
        "name": "Mala Hospital",
        "source": "Local Knowledge"
      }
    },
    {
      "type": "node",
      "id": 7634424717,
      "lat": 19.158047,
      "lon": 77.307799,
      "tags": {
        "addr:district": "Nanded",
        "addr:full": "Ghamodia Compound, Doctor Line Road, Opp. Kalamandir, Nanded",
        "addr:postcode": "431601",
        "addr:state": "Maharastra",
        "amenity": "hospital",
        "name": "Umrekar Multispeciality Hospital",
        "source": "Local Knowledge"
      }
    },
    {
      "type": "node",
      "id": 7634424718,
      "lat": 19.1647284,
      "lon": 77.3180888,
      "tags": {
        "addr:district": "Nanded",
        "addr:full": "Samrat Nagar, Hyder Bagh, Dashmesh Nagar, Harsh Nagar, Nanded",
        "addr:postcode": "431601",
        "addr:state": "Maharastra",
        "amenity": "hospital",
        "name": "Swami Vivekanand Hospital",
        "source": "Local Knowledge"
      }
    },
    {
      "type": "node",
      "id": 7634424722,
      "lat": 19.152335,
      "lon": 77.3079834,
      "tags": {
        "addr:district": "Nanded",
        "addr:full": "Doctor Lane Borban, Vazirabad, Nanded-Waghala",
        "addr:postcode": "431601",
        "addr:state": "Maharastra",
        "amenity": "hospital",
        "name": "Galaxy Hospital - Centre for GI & liver diseases",
        "source": "Local Knowledge"
      }
    },
    {
      "type": "node",
      "id": 7634424723,
      "lat": 19.1568706,
      "lon": 77.3059721,
      "tags": {
        "addr:district": "Nanded",
        "addr:full": "Behind Kalamandir, Somesh colony, Khadakpura, Nanded",
        "addr:postcode": "431601",
        "addr:state": "Maharastra",
        "amenity": "hospital",
        "name": "Dr. Santosh Malpani Hospital",
        "source": "Local Knowledge"
      }
    },
    {
      "type": "node",
      "id": 7634424724,
      "lat": 19.1553972,
      "lon": 77.3117703,
      "tags": {
        "addr:district": "Nanded",
        "addr:full": "Railway Station Road, Vazirabad, Nanded",
        "addr:postcode": "431601",
        "addr:state": "Maharastra",
        "amenity": "hospital",
        "name": "S.G.G.S Memorial Government Hospital",
        "source": "Local Knowledge"
      }
    },
    {
      "type": "node",
      "id": 7634424725,
      "lat": 19.155569,
      "lon": 77.317018,
      "tags": {
        "addr:district": "Nanded",
        "addr:full": "Harsh Nagar, Hyder Bagh, Dashmesh Nagar, Nanded",
        "addr:postcode": "431601",
        "addr:state": "Maharastra",
        "amenity": "hospital",
        "name": "Dashmesh Hospital",
        "source": "Local Knowledge"
      }
    },
    {
      "type": "node",
      "id": 7634424726,
      "lat": 19.1509416,
      "lon": 77.3083445,
      "tags": {
        "addr:district": "Nanded",
        "addr:full": "Doctor Lane Borban, Vazirabad, Nanded",
        "addr:postcode": "431601",
        "addr:state": "Maharastra",
        "amenity": "hospital",
        "name": "Gayakwad Hospital",
        "source": "Local Knowledge"
      }
    },
    {
      "type": "node",
      "id": 7634424727,
      "lat": 19.1524681,
      "lon": 77.3099237,
      "tags": {
        "addr:district": "Nanded",
        "addr:full": "Gowardhan Ghat, Bridge Road, Vazirabad, Nanded",
        "addr:postcode": "431601",
        "addr:state": "Maharastra",
        "amenity": "hospital",
        "name": "Bhaskar Hospital",
        "source": "Local Knowledge"
      }
    },
    {
      "type": "node",
      "id": 7634424729,
      "lat": 19.152223,
      "lon": 77.3087808,
      "tags": {
        "addr:district": "Nanded",
        "addr:full": "Doctor Lane Borban, Vazirabad, Nanded-Waghala",
        "addr:postcode": "431601",
        "addr:state": "Maharastra",
        "amenity": "hospital",
        "name": "Shree Yogeshwari Hospital",
        "source": "Local Knowledge"
      }
    },
    {
      "type": "node",
      "id": 7634424730,
      "lat": 19.1504038,
      "lon": 77.3087515,
      "tags": {
        "addr:district": "Nanded",
        "addr:full": "Borban Factory Area, Vazirabad, Nanded",
        "addr:postcode": "431604",
        "addr:state": "Maharastra",
        "amenity": "hospital",
        "name": "Omsai Surgical and Leproscopy Centre",
        "source": "Local Knowledge"
      }
    },
    {
      "type": "node",
      "id": 7634424732,
      "lat": 19.158179,
      "lon": 77.310505,
      "tags": {
        "addr:district": "Nanded",
        "addr:full": "Opp Zilla Parishad, Old Chunhi Naka, Infront of Station, Nanded",
        "addr:postcode": "431601",
        "addr:state": "Maharastra",
        "amenity": "hospital",
        "name": "Apeksha Dental Hospital and Superspeciality Clinic",
        "source": "Local Knowledge"
      }
    },
    {
      "type": "node",
      "id": 7634424733,
      "lat": 19.1520827,
      "lon": 77.3109069,
      "tags": {
        "addr:district": "Nanded",
        "addr:full": "Vazirabad, Nanded",
        "addr:postcode": "431601",
        "addr:state": "Maharastra",
        "amenity": "hospital",
        "name": "Renuka Eye Hospital",
        "source": "Local Knowledge"
      }
    },
    {
      "type": "node",
      "id": 7634424734,
      "lat": 19.1574129,
      "lon": 77.3281975,
      "tags": {
        "addr:district": "Nanded",
        "addr:full": "Tipu Sultan Road, Hyder Bagh, Dashmesh Nagar, Harsh Nagar, Nanded",
        "addr:postcode": "431601",
        "addr:state": "Maharastra",
        "amenity": "hospital",
        "name": "Dr. Saqueb Seva Children's Hospital",
        "source": "Local Knowledge"
      }
    },
    {
      "type": "node",
      "id": 7634424738,
      "lat": 19.159075,
      "lon": 77.309335,
      "tags": {
        "addr:district": "Nanded",
        "addr:full": "Doctor Line Road, No.1, Khadakpura, Nanded",
        "addr:postcode": "431601",
        "addr:state": "Maharastra",
        "amenity": "hospital",
        "name": "Dr. Narlawar Vishal Hospital",
        "source": "Local Knowledge"
      }
    },
    {
      "type": "node",
      "id": 7634424739,
      "lat": 19.158627,
      "lon": 77.307806,
      "tags": {
        "addr:district": "Nanded",
        "addr:full": "Anham Somesh Colony, Kalamandir, Nanded",
        "addr:postcode": "431601",
        "addr:state": "Maharastra",
        "amenity": "hospital",
        "name": "Mangalmurti Hospital",
        "source": "Local Knowledge"
      }
    },
    {
      "type": "node",
      "id": 7634424741,
      "lat": 19.15791,
      "lon": 77.308593,
      "tags": {
        "addr:district": "Nanded",
        "addr:full": "Doctor Lane Road, Number 1, Doctor Lane, Khadakpura, Nanded",
        "addr:postcode": "431601",
        "addr:state": "Maharastra",
        "amenity": "hospital",
        "name": "Shri Chidrawar Super Specality Hospital",
        "source": "Local Knowledge"
      }
    },
    {
      "type": "node",
      "id": 7634424743,
      "lat": 19.155136,
      "lon": 77.307919,
      "tags": {
        "addr:district": "Nanded",
        "addr:full": "Near Hotel Gokul, Khadakpura, Nanded",
        "addr:postcode": "431601",
        "addr:state": "Maharastra",
        "amenity": "hospital",
        "name": "Rayet Hospital",
        "source": "Local Knowledge"
      }
    },
    {
      "type": "node",
      "id": 7634424744,
      "lat": 19.1512793,
      "lon": 77.3089281,
      "tags": {
        "addr:district": "Nanded",
        "addr:full": "Doctor Line Borban, Vazirabad, Nanded-Waghala",
        "addr:postcode": "431601",
        "addr:state": "Maharastra",
        "amenity": "hospital",
        "name": "Vighnharta Hospital",
        "source": "Local Knowledge"
      }
    },
    {
      "type": "node",
      "id": 7634424747,
      "lat": 19.1517437,
      "lon": 77.3313175,
      "tags": {
        "addr:district": "Nanded",
        "addr:full": "Baba Seth Complex, Opp Police Chowki, Madina Chowk, Degloor Road, Nanded-Waghala",
        "addr:postcode": "431601",
        "addr:state": "Maharastra",
        "amenity": "hospital",
        "name": "Shams Hospital and Maternity Home",
        "source": "Local Knowledge"
      }
    },
    {
      "type": "node",
      "id": 7634424748,
      "lat": 19.157568,
      "lon": 77.312,
      "tags": {
        "addr:district": "Nanded",
        "addr:full": "Behind District Court, Near Andhra Samiti School, Gawalipura, Khadakpura, Nanded",
        "addr:postcode": "431601",
        "addr:state": "Maharastra",
        "amenity": "hospital",
        "name": "Monark Cancer Hospital",
        "source": "Local Knowledge"
      }
    },
    {
      "type": "node",
      "id": 7634424749,
      "lat": 19.15109,
      "lon": 77.3085592,
      "tags": {
        "addr:district": "Nanded",
        "addr:full": "Besides Marathwada Bai Rugnalaya Borban Area, Nanded",
        "addr:postcode": "431601",
        "addr:state": "Maharastra",
        "amenity": "hospital",
        "name": "Katte Hospital",
        "source": "Local Knowledge"
      }
    },
    {
      "type": "node",
      "id": 7634424750,
      "lat": 19.1515622,
      "lon": 77.3153292,
      "tags": {
        "addr:district": "Nanded",
        "addr:full": "Chikhalwadi, Hyder Bagh, Dashmesh Nagar, Harsh Nagar, Nanded",
        "addr:postcode": "431601",
        "addr:state": "Maharastra",
        "amenity": "hospital",
        "name": "Perke Hospital and Maternity Home",
        "source": "Local Knowledge"
      }
    },
    {
      "type": "node",
      "id": 7634424751,
      "lat": 19.102134,
      "lon": 77.358352,
      "tags": {
        "addr:district": "Nanded",
        "addr:full": "Tuppa Wadgaon, Tuppa",
        "addr:postcode": "431603",
        "addr:state": "Maharastra",
        "amenity": "hospital",
        "name": "Jaundice Hospital",
        "source": "Local Knowledge"
      }
    },
    {
      "type": "node",
      "id": 7634424753,
      "lat": 19.160153,
      "lon": 77.315151,
      "tags": {
        "addr:district": "Nanded",
        "addr:full": "Railway Station - Bafna Road, Khadakpura, Nanded",
        "addr:postcode": "431601",
        "addr:state": "Maharastra",
        "amenity": "hospital",
        "name": "Railway Hospital",
        "source": "Local Knowledge"
      }
    },
    {
      "type": "node",
      "id": 7634424757,
      "lat": 19.1517755,
      "lon": 77.309636,
      "tags": {
        "addr:district": "Nanded",
        "addr:full": "Dilipsingh Colony, Vazirabad, Nanded",
        "addr:postcode": "431601",
        "addr:state": "Maharastra",
        "amenity": "hospital",
        "name": "Sajne Hospital",
        "source": "Local Knowledge"
      }
    },
    {
      "type": "node",
      "id": 7634424758,
      "lat": 19.1622615,
      "lon": 77.3190715,
      "tags": {
        "addr:district": "Nanded",
        "addr:full": "Samratnagar/ Duttanagar, Near Anna Bhau Sathe Chowk, Nanded-Waghala",
        "addr:postcode": "431601",
        "addr:state": "Maharastra",
        "amenity": "hospital",
        "name": "Abhyuday's Lifecare Superspeciality Hospital",
        "source": "Local Knowledge"
      }
    },
    {
      "type": "node",
      "id": 7634424759,
      "lat": 19.1584257,
      "lon": 77.3072857,
      "tags": {
        "addr:district": "Nanded",
        "addr:full": "Doctor's Lane, Khadakpura, Nanded",
        "addr:postcode": "431601",
        "addr:state": "Maharastra",
        "amenity": "hospital",
        "name": "Bannalikar Children's Hospital",
        "source": "Local Knowledge"
      }
    },
    {
      "type": "node",
      "id": 7634424760,
      "lat": 19.1540321,
      "lon": 77.3091705,
      "tags": {
        "addr:district": "Nanded",
        "addr:full": "Vazirabad Square, Behind SP Office, Nanded",
        "addr:postcode": "431601",
        "addr:state": "Maharastra",
        "amenity": "hospital",
        "name": "Jeevan Jyoti Hospital",
        "source": "Local Knowledge"
      }
    },
    {
      "type": "node",
      "id": 7634424763,
      "lat": 19.1589457,
      "lon": 77.3074618,
      "tags": {
        "addr:district": "Nanded",
        "addr:full": "Doctor Lane, Khadakpura, Nanded-Waghala",
        "addr:postcode": "431601",
        "addr:state": "Maharastra",
        "amenity": "hospital",
        "name": "Sanvedana Skin Care Hospital",
        "source": "Local Knowledge"
      }
    },
    {
      "type": "node",
      "id": 7634424769,
      "lat": 19.1520955,
      "lon": 77.3111285,
      "tags": {
        "addr:district": "Nanded",
        "addr:full": "Shivaji Road, Dilipsingh Colony, Vazirabad, Nanded",
        "addr:postcode": "431601",
        "addr:state": "Maharastra",
        "amenity": "hospital",
        "name": "Mamidwar Hospital",
        "source": "Local Knowledge"
      }
    },
    {
      "type": "node",
      "id": 7634424770,
      "lat": 19.147492,
      "lon": 77.325204,
      "tags": {
        "addr:district": "Nanded",
        "addr:full": "Itwara Bazar Road, Hyder Bagh, Dashmesh Nagar, Harsh Nagar, Nanded",
        "addr:postcode": "431604",
        "addr:state": "Maharastra",
        "amenity": "hospital",
        "name": "Quadri Hospital",
        "source": "Local Knowledge"
      }
    },
    {
      "type": "node",
      "id": 7635002010,
      "lat": 19.1758422,
      "lon": 77.3041161,
      "tags": {
        "addr:district": "Nanded",
        "addr:full": "Vivek Nagar Corner, Shivaji Nagar Nanded, Near Shri Nagar",
        "addr:postcode": "431602",
        "addr:state": "Maharastra",
        "amenity": "hospital",
        "name": "Sharada Hospital",
        "source": "Local Knowledge"
      }
    },
    {
      "type": "node",
      "id": 7635002011,
      "lat": 19.1720694,
      "lon": 77.296759,
      "tags": {
        "addr:district": "Nanded",
        "addr:full": "Yeshwant Nagar, Ganesh Nagar, Nanded",
        "addr:postcode": "431602",
        "addr:state": "Maharastra",
        "amenity": "hospital",
        "name": "Kesarle Hospital",
        "source": "Local Knowledge"
      }
    },
    {
      "type": "node",
      "id": 7635002013,
      "lat": 19.1613548,
      "lon": 77.3023891,
      "tags": {
        "addr:district": "Nanded",
        "addr:full": "Lalbadi, Shrawasti Nagar, Nanded",
        "addr:postcode": "431602",
        "addr:state": "Maharastra",
        "amenity": "hospital",
        "name": "Dr. Kalambkar's Sushroot Hospital",
        "source": "Local Knowledge"
      }
    },
    {
      "type": "node",
      "id": 7635002014,
      "lat": 19.162177,
      "lon": 77.304319,
      "tags": {
        "addr:district": "Nanded",
        "addr:full": "Shivaji Nagar, Near Hanuman Mandir, Nanded",
        "addr:postcode": "431602",
        "addr:state": "Maharastra",
        "amenity": "hospital",
        "name": "Dhondge Hospital",
        "source": "Local Knowledge"
      }
    },
    {
      "type": "node",
      "id": 7635002018,
      "lat": 19.176553,
      "lon": 77.309913,
      "tags": {
        "addr:district": "Nanded",
        "addr:full": "Opp Bhagya Nagar, Near Home Guard Office, Bhagya Nagar, Nanded",
        "addr:postcode": "431000",
        "addr:state": "Maharastra",
        "amenity": "hospital",
        "name": "Kadam Hospital and Nursing Home",
        "source": "Local Knowledge"
      }
    },
    {
      "type": "node",
      "id": 7635002021,
      "lat": 19.1610739,
      "lon": 77.3044972,
      "tags": {
        "addr:district": "Nanded",
        "addr:full": "Lalbadi, Shrawasti Nagar, Nanded-Waghala",
        "addr:postcode": "431602",
        "addr:state": "Maharastra",
        "amenity": "hospital",
        "name": "Chounde Hospital",
        "source": "Local Knowledge"
      }
    },
    {
      "type": "node",
      "id": 7635002023,
      "lat": 19.181231,
      "lon": 77.302801,
      "tags": {
        "addr:district": "Nanded",
        "addr:full": "Taroda Nakka Road, Ashok Nagar Road, Nanded",
        "addr:postcode": "431605",
        "addr:state": "Maharastra",
        "amenity": "hospital",
        "name": "Srinath Prasutigruh Children's Hospital",
        "source": "Local Knowledge"
      }
    },
    {
      "type": "node",
      "id": 7635002024,
      "lat": 19.16158,
      "lon": 77.305655,
      "tags": {
        "addr:district": "Nanded",
        "addr:full": "Shivaji Road, Shivaji Nagar Nai Abaadi, Vishnu Nagar, Nanded",
        "addr:postcode": "431602",
        "addr:state": "Maharastra",
        "amenity": "hospital",
        "name": "Dagadiya Dental Hospital",
        "source": "Local Knowledge"
      }
    },
    {
      "type": "node",
      "id": 7635002030,
      "lat": 19.1848524,
      "lon": 77.305179,
      "tags": {
        "addr:district": "Nanded",
        "addr:full": "Maharashtra Gramin Bank, Near Manik Nagar, Chaitanya Nagar, Taroda Bk",
        "addr:postcode": "431605",
        "addr:state": "Maharastra",
        "amenity": "hospital",
        "name": "Gajanan Hospital",
        "source": "Local Knowledge"
      }
    },
    {
      "type": "node",
      "id": 7635002031,
      "lat": 19.1609476,
      "lon": 77.305161,
      "tags": {
        "addr:district": "Nanded",
        "addr:full": "Wadiya, Shivaji Putala, Nanded",
        "addr:postcode": "431602",
        "addr:state": "Maharastra",
        "amenity": "hospital",
        "name": "Bhagwati Multispeciality Hospital",
        "source": "Local Knowledge"
      }
    },
    {
      "type": "node",
      "id": 7635002034,
      "lat": 19.170741,
      "lon": 77.3157702,
      "tags": {
        "addr:district": "Nanded",
        "addr:full": "Sadbavana Marga, Vasnat Nagar, Nanded",
        "addr:postcode": "431603",
        "addr:state": "Maharastra",
        "amenity": "hospital",
        "name": "Shree Durga Hospital",
        "source": "Local Knowledge"
      }
    },
    {
      "type": "node",
      "id": 7635002036,
      "lat": 19.1640257,
      "lon": 77.3010512,
      "tags": {
        "addr:district": "Nanded",
        "addr:full": "Shivaji Nagar Lalbadi, Mahavir Society, Nanded",
        "addr:postcode": "431602",
        "addr:state": "Maharastra",
        "amenity": "hospital",
        "name": "Radhika Hospital",
        "source": "Local Knowledge"
      }
    },
    {
      "type": "node",
      "id": 7635002037,
      "lat": 19.18121,
      "lon": 77.303191,
      "tags": {
        "addr:district": "Nanded",
        "addr:full": "Sanmitra Colony, Opp. Sinchan Bhawan Gate No. 2, Regional Workshop, Jangamwadi Road, Nanded",
        "addr:postcode": "431605",
        "addr:state": "Maharastra",
        "amenity": "hospital",
        "name": "Maher Hospital",
        "source": "Local Knowledge"
      }
    },
    {
      "type": "node",
      "id": 7635002039,
      "lat": 19.16224,
      "lon": 77.3018575,
      "tags": {
        "addr:district": "Nanded",
        "addr:full": "Mahavir Society Road, Shivaji Road, Nanded",
        "addr:postcode": "431602",
        "addr:state": "Maharastra",
        "amenity": "hospital",
        "name": "City Hospital Super Speciality Centre",
        "source": "Local Knowledge"
      }
    },
    {
      "type": "node",
      "id": 7635002041,
      "lat": 19.1829459,
      "lon": 77.3047435,
      "tags": {
        "addr:district": "Nanded",
        "addr:full": "Fasal Nagar, Irrigation Colony, Peer Burhan Nagar, Nanded",
        "addr:postcode": "431605",
        "addr:state": "Maharastra",
        "amenity": "hospital",
        "name": "Pulse Multispeciality Hospital",
        "source": "Local Knowledge"
      }
    },
    {
      "type": "node",
      "id": 7635002043,
      "lat": 19.1843049,
      "lon": 77.3070119,
      "tags": {
        "addr:district": "Nanded",
        "addr:full": "Airport Road, Manik Nagar, Balaji Nagar, Nanded",
        "addr:postcode": "431605",
        "addr:state": "Maharastra",
        "amenity": "hospital",
        "name": "City Care Hospital",
        "source": "Local Knowledge"
      }
    },
    {
      "type": "node",
      "id": 7635002049,
      "lat": 19.1920525,
      "lon": 77.29776,
      "tags": {
        "addr:district": "Nanded",
        "addr:full": "Near Tathagat Nagar, Ashtvinayak Nagar, Nanded",
        "addr:postcode": "431605",
        "addr:state": "Maharastra",
        "amenity": "hospital",
        "name": "Bhanushri Hospital",
        "source": "Local Knowledge"
      }
    },
    {
      "type": "node",
      "id": 7635002051,
      "lat": 19.1850325,
      "lon": 77.3041658,
      "tags": {
        "addr:district": "Nanded",
        "addr:full": "Ashtvinayak Nagar, Nanded",
        "addr:postcode": "431605",
        "addr:state": "Maharastra",
        "amenity": "hospital",
        "name": "Surya Hospital",
        "source": "Local Knowledge"
      }
    },
    {
      "type": "node",
      "id": 7635002052,
      "lat": 19.1615303,
      "lon": 77.3053063,
      "tags": {
        "addr:district": "Nanded",
        "addr:full": "Wadiya Factory Area, Shivaji Nagar, Behind Hanuman Mandir, Nanded",
        "addr:postcode": "431602",
        "addr:state": "Maharastra",
        "amenity": "hospital",
        "name": "Dr. Kotalwar ENT Hospital",
        "source": "Local Knowledge"
      }
    },
    {
      "type": "node",
      "id": 7635002053,
      "lat": 19.1792777,
      "lon": 77.2889103,
      "tags": {
        "addr:district": "Nanded",
        "addr:full": "Pawadewadi Road, Farande Nagar Wadi Bk, Nanded",
        "addr:postcode": "431602",
        "addr:state": "Maharastra",
        "amenity": "hospital",
        "name": "Arogya Hospital",
        "source": "Local Knowledge"
      }
    },
    {
      "type": "node",
      "id": 7635002054,
      "lat": 19.1854024,
      "lon": 77.3007593,
      "tags": {
        "addr:district": "Nanded",
        "addr:full": "Ashtvinayak Nagar, Nanded",
        "addr:postcode": "431605",
        "addr:state": "Maharastra",
        "amenity": "hospital",
        "name": "Jivala Hospital",
        "source": "Local Knowledge"
      }
    },
    {
      "type": "node",
      "id": 7635002056,
      "lat": 19.1721654,
      "lon": 77.31525,
      "tags": {
        "addr:district": "Nanded",
        "addr:full": "Bhagya Nagar Road, Hyder Bagh, Dashmesh Nagar, Anand Nagar, Nanded",
        "addr:postcode": "431601",
        "addr:state": "Maharastra",
        "amenity": "hospital",
        "name": "Swami Vivekanand Hospital",
        "source": "Local Knowledge"
      }
    },
    {
      "type": "node",
      "id": 7635002058,
      "lat": 19.1642427,
      "lon": 77.3000506,
      "tags": {
        "addr:district": "Nanded",
        "addr:full": "Lalbadi, Mahavir Society, Nanded",
        "addr:postcode": "431602",
        "addr:state": "Maharastra",
        "amenity": "hospital",
        "name": "Shree Naarayana Super Speciality Hospital",
        "source": "Local Knowledge"
      }
    },
    {
      "type": "node",
      "id": 7635002060,
      "lat": 19.161288,
      "lon": 77.303511,
      "tags": {
        "addr:district": "Nanded",
        "addr:full": "Lalbadi, Shrawasti Nagar, Nanded-Waghala",
        "addr:postcode": "431602",
        "addr:state": "Maharastra",
        "amenity": "hospital",
        "name": "Sanjeevani Critical Care & Trauma Care centre",
        "source": "Local Knowledge"
      }
    },
    {
      "type": "node",
      "id": 7635002064,
      "lat": 19.1618391,
      "lon": 77.3023378,
      "tags": {
        "addr:district": "Nanded",
        "addr:full": "Lalbadi, Shrawasti Nagar, Nanded",
        "addr:postcode": "431602",
        "addr:state": "Maharastra",
        "amenity": "hospital",
        "name": "Dhonde Hospital",
        "source": "Local Knowledge"
      }
    },
    {
      "type": "node",
      "id": 7635002066,
      "lat": 19.163261,
      "lon": 77.308655,
      "tags": {
        "addr:district": "Nanded",
        "addr:full": "Vishnu Nagar, Nanded-Waghala",
        "addr:postcode": "431602",
        "addr:state": "Maharastra",
        "amenity": "hospital",
        "name": "Sadbhavana Netralaya Hospital",
        "source": "Local Knowledge"
      }
    },
    {
      "type": "node",
      "id": 7635002067,
      "lat": 19.179741,
      "lon": 77.3025717,
      "tags": {
        "addr:district": "Nanded",
        "addr:full": "Shrinagar Taroda Naka Road, Prabhat Nagar, Shri Nagar, Nanded",
        "addr:postcode": "431602",
        "addr:state": "Maharastra",
        "amenity": "hospital",
        "name": "Lions Eye Hospital",
        "source": "Local Knowledge"
      }
    },
    {
      "type": "node",
      "id": 7635002068,
      "lat": 19.1906613,
      "lon": 77.3085817,
      "tags": {
        "addr:district": "Nanded",
        "addr:full": "Vishwadeep Nagar, Balaji Nagar, Nanded",
        "addr:postcode": "431605",
        "addr:state": "Maharastra",
        "amenity": "hospital",
        "name": "Mansi Hospital",
        "source": "Local Knowledge"
      }
    },
    {
      "type": "node",
      "id": 7635002069,
      "lat": 19.1843789,
      "lon": 77.2918724,
      "tags": {
        "addr:district": "Nanded",
        "addr:full": "Waman Nagar, Nanded",
        "addr:postcode": "431605",
        "addr:state": "Maharastra",
        "amenity": "hospital",
        "name": "Tirumala Multispeciality Hospital",
        "source": "Local Knowledge"
      }
    },
    {
      "type": "node",
      "id": 7635002071,
      "lat": 19.179101,
      "lon": 77.305864,
      "tags": {
        "addr:district": "Nanded",
        "addr:full": "Infront Of SBH Workshop Corner, Bhagya Nagar Road, Nanded",
        "addr:postcode": "431602",
        "addr:state": "Maharastra",
        "amenity": "hospital",
        "name": "Gitai Hospital",
        "source": "Local Knowledge"
      }
    },
    {
      "type": "node",
      "id": 7635002074,
      "lat": 19.1721844,
      "lon": 77.2963423,
      "tags": {
        "addr:district": "Nanded",
        "addr:full": "Yeshwant Nagar, Nagsen Nagar, Nanded",
        "addr:postcode": "431602",
        "addr:state": "Maharastra",
        "amenity": "hospital",
        "name": "Aai Hospital",
        "source": "Local Knowledge"
      }
    },
    {
      "type": "node",
      "id": 7635002076,
      "lat": 19.1864235,
      "lon": 77.3005504,
      "tags": {
        "addr:district": "Nanded",
        "addr:full": "Zilla Parishad Coloney, Opp Mahalaxmi Oil Shop, Malegaon Road, Nanded",
        "addr:postcode": "431605",
        "addr:state": "Maharastra",
        "amenity": "hospital",
        "name": "Sai Matruseva Hospital",
        "source": "Local Knowledge"
      }
    },
    {
      "type": "node",
      "id": 7635002077,
      "lat": 19.19077,
      "lon": 77.298652,
      "tags": {
        "addr:district": "Nanded",
        "addr:full": "Nanded Malegaon Road, Sarpanch Nagar, Patijawal Malegaon Road, Nanded",
        "addr:postcode": "431605",
        "addr:state": "Maharastra",
        "amenity": "hospital",
        "name": "Barade Children's Hospital",
        "source": "Local Knowledge"
      }
    },
    {
      "type": "node",
      "id": 7635002078,
      "lat": 19.17657,
      "lon": 77.3041998,
      "tags": {
        "addr:district": "Nanded",
        "addr:full": "Shivaji Road, Vivek Nagar, Kailash Nagar, Nanded-Waghala",
        "addr:postcode": "431605",
        "addr:state": "Maharastra",
        "amenity": "hospital",
        "name": "Mandakhalikar Hospital",
        "source": "Local Knowledge"
      }
    },
    {
      "type": "node",
      "id": 7635002083,
      "lat": 19.1858021,
      "lon": 77.291807,
      "tags": {
        "addr:district": "Nanded",
        "addr:full": "Near Chatrapati Chowk, Purna Road, Chatrapati Nagar, Wadi, Nanded",
        "addr:postcode": "431605",
        "addr:state": "Maharastra",
        "amenity": "hospital",
        "name": "Janani Hospital",
        "source": "Local Knowledge"
      }
    },
    {
      "type": "node",
      "id": 7635002085,
      "lat": 19.16067,
      "lon": 77.304683,
      "tags": {
        "addr:district": "Nanded",
        "addr:full": "Shivaji Nagar, Wadia Factory Compound, Nanded",
        "addr:postcode": "431602",
        "addr:state": "Maharastra",
        "amenity": "hospital",
        "name": "Joshi Hospital",
        "source": "Local Knowledge"
      }
    },
    {
      "type": "node",
      "id": 7635002087,
      "lat": 19.1921768,
      "lon": 77.3088739,
      "tags": {
        "addr:district": "Nanded",
        "addr:full": "Taroda Back Road, Balaji Nagar, Nanded",
        "addr:postcode": "431605",
        "addr:state": "Maharastra",
        "amenity": "hospital",
        "name": "N M C Hospital",
        "source": "Local Knowledge"
      }
    },
    {
      "type": "node",
      "id": 7635002089,
      "lat": 19.1622017,
      "lon": 77.3068192,
      "tags": {
        "addr:district": "Nanded",
        "addr:full": "Shivaji Nagar Nai Abaadi, Gokul Nagar, Nanded",
        "addr:postcode": "431602",
        "addr:state": "Maharastra",
        "amenity": "hospital",
        "name": "Rachewad Hospital",
        "source": "Local Knowledge"
      }
    },
    {
      "type": "node",
      "id": 7635002090,
      "lat": 19.161304,
      "lon": 77.304524,
      "tags": {
        "addr:district": "Nanded",
        "addr:full": "Wadiya Compound, Shivaji Nagar, Near Ashwini Hospital, Nanded",
        "addr:postcode": "431602",
        "addr:state": "Maharastra",
        "amenity": "hospital",
        "name": "Aadhar Hospital",
        "source": "Local Knowledge"
      }
    },
    {
      "type": "node",
      "id": 7635002093,
      "lat": 19.1718775,
      "lon": 77.3158994,
      "tags": {
        "addr:district": "Nanded",
        "addr:full": "Vasant Nagar, Hyder Bagh, Dashmesh Nagar, Harsh Nagar, Nanded",
        "addr:postcode": "431601",
        "addr:state": "Maharastra",
        "amenity": "hospital",
        "name": "Sangmeshwar Niwas, Sai seva Hospital",
        "source": "Local Knowledge"
      }
    },
    {
      "type": "node",
      "id": 7635002094,
      "lat": 19.1609243,
      "lon": 77.304772,
      "tags": {
        "addr:district": "Nanded",
        "addr:full": "Lalbadi, Shrawasti Nagar, Nanded",
        "addr:postcode": "431602",
        "addr:state": "Maharastra",
        "amenity": "hospital",
        "name": "Sahyadri Hospital",
        "source": "Local Knowledge"
      }
    },
    {
      "type": "node",
      "id": 7635002095,
      "lat": 19.1764667,
      "lon": 77.3069032,
      "tags": {
        "addr:district": "Nanded",
        "addr:full": "Vivek Nagar, Vishnu Nagar, Nanded",
        "addr:postcode": "431605",
        "addr:state": "Maharastra",
        "amenity": "hospital",
        "name": "Jadhav Hospital",
        "source": "Local Knowledge"
      }
    },
    {
      "type": "node",
      "id": 7635002098,
      "lat": 19.1690036,
      "lon": 77.2980991,
      "tags": {
        "addr:district": "Nanded",
        "addr:full": "Ganesh Nagar, Nanded",
        "addr:postcode": "431602",
        "addr:state": "Maharastra",
        "amenity": "hospital",
        "name": "Shree Hospital",
        "source": "Local Knowledge"
      }
    },
    {
      "type": "node",
      "id": 7635002099,
      "lat": 19.167415,
      "lon": 77.299703,
      "tags": {
        "addr:district": "Nanded",
        "addr:full": "Nagsen Nagar, Nanded",
        "addr:postcode": "431602",
        "addr:state": "Maharastra",
        "amenity": "hospital",
        "name": "Videkar Hospital",
        "source": "Local Knowledge"
      }
    },
    {
      "type": "node",
      "id": 7635002100,
      "lat": 19.1607557,
      "lon": 77.3052491,
      "tags": {
        "addr:district": "Nanded",
        "addr:full": "Wadia factory, Shivaji Road, Nanded",
        "addr:postcode": "431602",
        "addr:state": "Maharastra",
        "amenity": "hospital",
        "name": "Dr. More Hospital",
        "source": "Local Knowledge"
      }
    },
    {
      "type": "node",
      "id": 7635002103,
      "lat": 19.1783035,
      "lon": 77.3050528,
      "tags": {
        "addr:district": "Nanded",
        "addr:full": "Beside Bojalwar Hospital, Kailash Nagar, Nanded",
        "addr:postcode": "431605",
        "addr:state": "Maharastra",
        "amenity": "hospital",
        "name": "Ishwar Multispeciality Hospital",
        "source": "Local Knowledge"
      }
    },
    {
      "type": "node",
      "id": 7635002106,
      "lat": 19.175922,
      "lon": 77.304937,
      "tags": {
        "addr:district": "Nanded",
        "addr:full": "Vivek Nagar, Vishnu Nagar, Nanded",
        "addr:postcode": "431605",
        "addr:state": "Maharastra",
        "amenity": "hospital",
        "name": "Triveni Hospital",
        "source": "Local Knowledge"
      }
    },
    {
      "type": "node",
      "id": 7635002107,
      "lat": 19.1619623,
      "lon": 77.3035026,
      "tags": {
        "addr:district": "Nanded",
        "addr:full": "Near Mahaveer Society, Lalbadi, Vishnu Nagar, Nanded",
        "addr:postcode": "431602",
        "addr:state": "Maharastra",
        "amenity": "hospital",
        "name": "Kalpataru Children's Hospital",
        "source": "Local Knowledge"
      }
    },
    {
      "type": "node",
      "id": 7635002108,
      "lat": 19.1845727,
      "lon": 77.3094347,
      "tags": {
        "addr:district": "Nanded",
        "addr:full": "Chaitanya Nagar, Near Soubhadra Mangal Karyalaya, Balaji Nagar, Nanded",
        "addr:postcode": "431605",
        "addr:state": "Maharastra",
        "amenity": "hospital",
        "name": "Pooja Women's Hospital",
        "source": "Local Knowledge"
      }
    },
    {
      "type": "node",
      "id": 7635002109,
      "lat": 19.161023,
      "lon": 77.304598,
      "tags": {
        "addr:district": "Nanded",
        "addr:full": "Lalbadi, Shrawasti Nagar, Nanded",
        "addr:postcode": "431602",
        "addr:state": "Maharastra",
        "amenity": "hospital",
        "name": "Vinayak Hospital",
        "source": "Local Knowledge"
      }
    },
    {
      "type": "node",
      "id": 7635002110,
      "lat": 19.160932,
      "lon": 77.302843,
      "tags": {
        "addr:district": "Nanded",
        "addr:full": "Wadiya Factory Area, Shivaji Putala, Nanded",
        "addr:postcode": "431602",
        "addr:state": "Maharastra",
        "amenity": "hospital",
        "name": "Vision Hospital",
        "source": "Local Knowledge"
      }
    },
    {
      "type": "node",
      "id": 7635002111,
      "lat": 19.173436,
      "lon": 77.315226,
      "tags": {
        "addr:district": "Nanded",
        "addr:full": "Bhagya Nagar Road, Anand Nagar, Nanded",
        "addr:postcode": "431601",
        "addr:state": "Maharastra",
        "amenity": "hospital",
        "name": "Allampallewar Hospital",
        "source": "Local Knowledge"
      }
    }
  ]
}